"Chandra X-Ray Obseravtory" "Sol/Earth"
{
	Mesh 	"chandra.3ds"
	Radius 	0.007

	EllipticalOrbit
	{
		Period 		2.644253201747003E+00
		SemiMajorAxis 	8.07738187917855E+04
		Eccentricity 	6.123491961744624E-01
		Inclination 	5.039473548650146E+01
		AscendingNode 	1.173837519763053E+02
		ArgOfPericenter	3.117234441583341E+02
		MeanAnomaly 	1.195671823482255E+02
		Epoch 		2452835.871527778
	}

	Albedo 		0.7
}